COMMENT,ORIGINATOR,NORAD_CAT_ID,OBJECT_NAME,OBJECT_TYPE,CLASSIFICATION_TYPE,INTLDES,EPOCH,EPOCH_MICROSECONDS,MEAN_MOTION,ECCENTRICITY,INCLINATION,RA_OF_ASC_NODE,ARG_OF_PERICENTER,MEAN_ANOMALY,EPHEMERIS_TYPE,ELEMENT_SET_NO,REV_AT_EPOCH,BSTAR,MEAN_MOTION_DOT,MEAN_MOTION_DDOT,FILE,TLE_LINE0,TLE_LINE1,TLE_LINE2,OBJECT_ID,OBJECT_NUMBER,SEMIMAJOR_AXIS,PERIOD,APOGEE,PERIGEE,DECAYED,date
GENERATED VIA SPACETRACK.ORG API,18 SPCS,48893,SPACEBEE-106,PAYLOAD,U,21059Q,2023/1/25 2:42,223232,15.21574412,0.0008722,97.5788,159.9104,52.9247,307.2785,0,999,8756,0.0012683,0.00028644,0,3760417,0 SPACEBEE-106,1 48893U 21059Q   23025.11254888  .00028644  00000-0  12683-2 0  9994,2 48893  97.5788 159.9104 0008722  52.9247 307.2785 15.21574412 87565,2021-059Q,48893,6879.228,94.639,507.093,495.093,0,2023/2/16
GENERATED VIA SPACETRACK.ORG API,18 SPCS,48893,SPACEBEE-106,PAYLOAD,U,21059Q,2023/1/25 9:00,946272,15.21584812,0.000878,97.579,160.1752,52.2241,307.9788,0,999,8760,0.0010491,0.00023672,0,3761297,0 SPACEBEE-106,1 48893U 21059Q   23025.37560123  .00023672  00000-0  10491-2 0  9995,2 48893  97.5790 160.1752 0008780  52.2241 307.9788 15.21584812 87602,2021-059Q,48893,6879.197,94.638,507.102,495.022,0,2023/2/17
GENERATED VIA SPACETRACK.ORG API,18 SPCS,48893,SPACEBEE-106,PAYLOAD,U,21059Q,2023/1/25 20:03,955072,15.21609923,0.0008773,97.5789,160.6386,51.0585,309.1431,0,999,8767,0.0011482,0.00025942,0,3761360,0 SPACEBEE-106,1 48893U 21059Q   23025.83593698  .00025942  00000-0  11482-2 0  9992,2 48893  97.5789 160.6386 0008773  51.0585 309.1431 15.21609923 87675,2021-059Q,48893,6879.121,94.637,507.021,494.951,0,2023/2/18
GENERATED VIA SPACETRACK.ORG API,18 SPCS,48893,SPACEBEE-106,PAYLOAD,U,21059Q,2023/1/26 8:41,42944,15.21635747,0.0008806,97.5788,161.1685,49.2305,310.9693,0,999,8775,0.0010754,0.00024306,0,3761854,0 SPACEBEE-106,1 48893U 21059Q   23026.36202596  .00024306  00000-0  10754-2 0  9999,2 48893  97.5788 161.1685 0008806  49.2305 310.9693 15.21635747 87750,2021-059Q,48893,6879.043,94.635,506.966,494.851,0,2023/2/19
GENERATED VIA SPACETRACK.ORG API,18 SPCS,48893,SPACEBEE-106,PAYLOAD,U,21059Q,2023/1/26 8:41,42944,15.21635747,0.0008806,97.5788,161.1685,49.2305,310.9693,0,999,8775,0.0010754,0.00024306,0,3761951,0 SPACEBEE-106,1 48893U 21059Q   23026.36202596  .00024306  00000-0  10754-2 0  9999,2 48893  97.5788 161.1685 0008806  49.2305 310.9693 15.21635747 87750,2021-059Q,48893,6879.043,94.635,506.966,494.851,0,2023/2/20
GENERATED VIA SPACETRACK.ORG API,18 SPCS,48893,SPACEBEE-106,PAYLOAD,U,21059Q,2023/1/27 14:40,457984,15.21694379,0.0008713,97.5785,162.4266,45.1692,315.025,0,999,8794,0.00098191,0.00022218,0,3762956,0 SPACEBEE-106,1 48893U 21059Q   23027.61145206  .00022218  00000-0  98191-3 0  9994,2 48893  97.5785 162.4266 0008713  45.1692 315.0250 15.21694379 87949,2021-059Q,48893,6878.867,94.631,506.725,494.738,0,2023/2/21
GENERATED VIA SPACETRACK.ORG API,18 SPCS,48893,SPACEBEE-106,PAYLOAD,U,21059Q,2023/1/27 14:40,457984,15.21694379,0.0008713,97.5785,162.4266,45.1692,315.025,0,999,8794,0.00098191,0.00022218,0,3763064,0 SPACEBEE-106,1 48893U 21059Q   23027.61145206  .00022218  00000-0  98191-3 0  9994,2 48893  97.5785 162.4266 0008713  45.1692 315.0250 15.21694379 87949,2021-059Q,48893,6878.867,94.631,506.725,494.738,0,2023/2/22
GENERATED VIA SPACETRACK.ORG API,18 SPCS,48893,SPACEBEE-106,PAYLOAD,U,21059Q,2023/1/27 20:59,393408,15.21705295,0.000873,97.5786,162.6917,44.0232,316.1697,0,999,8798,0.00094061,0.00021285,0,3763218,0 SPACEBEE-106,1 48893U 21059Q   23027.87448372  .00021285  00000-0  94061-3 0  9997,2 48893  97.5786 162.6917 0008730  44.0232 316.1697 15.21705295 87983,2021-059Q,48893,6878.834,94.631,506.704,494.693,0,2023/2/23
GENERATED VIA SPACETRACK.ORG API,18 SPCS,48893,SPACEBEE-106,PAYLOAD,U,21059Q,2023/1/28 14:20,767584,15.21734137,0.0008697,97.5783,163.4203,41.1067,319.0822,0,999,8809,0.00085962,0.00019458,0,3763924,0 SPACEBEE-106,1 48893U 21059Q   23028.59780981  .00019458  00000-0  85962-3 0  9991,2 48893  97.5783 163.4203 0008697  41.1067 319.0822 15.21734137 88095,2021-059Q,48893,6878.747,94.629,506.594,494.629,0,2023/2/24
GENERATED VIA SPACETRACK.ORG API,18 SPCS,48893,SPACEBEE-106,PAYLOAD,U,21059Q,2023/1/28 20:39,92160,15.21744476,0.0008694,97.5784,163.6853,40.2278,319.96,0,999,8813,0.00081242,0.00018388,0,3764201,0 SPACEBEE-106,1 48893U 21059Q   23028.86083440  .00018388  00000-0  81242-3 0  9995,2 48893  97.5784 163.6853 0008694  40.2278 319.9600 15.21744476 88135,2021-059Q,48893,6878.716,94.628,506.561,494.6,0,2023/2/25
GENERATED VIA SPACETRACK.ORG API,18 SPCS,48893,SPACEBEE-106,PAYLOAD,U,21059Q,2023/1/28 22:14,401056,15.21746775,0.0008702,97.5784,163.7516,40.0571,320.1305,0,999,8814,0.00081787,0.00018514,0,3764319,0 SPACEBEE-106,1 48893U 21059Q   23028.92659029  .00018514  00000-0  81787-3 0  9999,2 48893  97.5784 163.7516 0008702  40.0571 320.1305 15.21746775 88147,2021-059Q,48893,6878.709,94.628,506.559,494.588,0,2023/2/26
GENERATED VIA SPACETRACK.ORG API,18 SPCS,48893,SPACEBEE-106,PAYLOAD,U,21059Q,2023/1/29 20:19,623136,15.21781256,0.0008624,97.5781,164.6786,37.4792,322.7043,0,999,8828,0.00072243,0.00016356,0,3765015,0 SPACEBEE-106,1 48893U 21059Q   23029.84715999  .00016356  00000-0  72243-3 0  9999,2 48893  97.5781 164.6786 0008624  37.4792 322.7043 15.21781256 88286,2021-059Q,48893,6878.605,94.626,506.402,494.538,0,2023/2/27
GENERATED VIA SPACETRACK.ORG API,18 SPCS,48893,SPACEBEE-106,PAYLOAD,U,21059Q,2023/1/30 2:38,228000,15.21790701,0.000864,97.5781,164.9436,36.5109,323.6714,0,999,8832,0.00077148,0.00017479,0,3765150,0 SPACEBEE-106,1 48893U 21059Q   23030.11017625  .00017479  00000-0  77148-3 0  9998,2 48893  97.5781 164.9436 0008640  36.5109 323.6714 15.21790701 88326,2021-059Q,48893,6878.576,94.625,506.384,494.498,0,2023/2/28
GENERATED VIA SPACETRACK.ORG API,18 SPCS,48893,SPACEBEE-106,PAYLOAD,U,21059Q,2023/1/30 8:57,711040,15.21799411,0.0008647,97.578,165.2085,35.8188,324.3626,0,999,8836,0.00073213,0.00016586,0,3765576,0 SPACEBEE-106,1 48893U 21059Q   23030.37319110  .00016586  00000-0  73213-3 0  9997,2 48893  97.5780 165.2085 0008647  35.8188 324.3626 15.21799411 88366,2021-059Q,48893,6878.55,94.625,506.363,494.467,0,2023/3/1
GENERATED VIA SPACETRACK.ORG API,18 SPCS,48893,SPACEBEE-106,PAYLOAD,U,21059Q,2023/1/30 21:34,287456,15.21816,0.0008645,97.578,165.7385,34.2241,325.955,0,999,8844,0.00068139,0.00015437,0,3765849,0 SPACEBEE-106,1 48893U 21059Q   23030.89921629  .00015437  00000-0  68139-3 0  9993,2 48893  97.5780 165.7385 0008645  34.2241 325.9550 15.21816000 88441,2021-059Q,48893,6878.5,94.624,506.312,494.419,0,2023/3/2
GENERATED VIA SPACETRACK.ORG API,18 SPCS,48893,SPACEBEE-106,PAYLOAD,U,21059Q,2023/1/31 2:18,377792,15.21821924,0.0008636,97.578,165.9372,33.6255,326.5527,0,999,8847,0.00067271,0.00015242,0,3766475,0 SPACEBEE-106,1 48893U 21059Q   23031.09647428  .00015242  00000-0  67271-3 0  9998,2 48893  97.5780 165.9372 0008636  33.6255 326.5527 15.21821924 88472,2021-059Q,48893,6878.482,94.623,506.287,494.407,0,2023/3/3
GENERATED VIA SPACETRACK.ORG API,18 SPCS,48893,SPACEBEE-106,PAYLOAD,U,21059Q,2023/2/1 3:33,405184,15.2186279,0.0008562,97.5781,166.9967,30.3833,329.7897,0,999,8863,0.00080774,0.00018345,0,3766886,0 SPACEBEE-106,1 48893U 21059Q   23032.14850006  .00018345  00000-0  80774-3 0  9993,2 48893  97.5781 166.9967 0008562  30.3833 329.7897 15.21862790 88637,2021-059Q,48893,6878.359,94.621,506.113,494.335,0,2023/3/4
GENERATED VIA SPACETRACK.ORG API,18 SPCS,48893,SPACEBEE-106,PAYLOAD,U,21059Q,2023/2/1 14:36,234144,15.21878435,0.0008536,97.578,167.4606,28.686,331.4844,0,999,8870,0.0007509,0.00017054,0,3767525,0 SPACEBEE-106,1 48893U 21059Q   23032.60875271  .00017054  00000-0  75090-3 0  9996,2 48893  97.5780 167.4606 0008536  28.6860 331.4844 15.21878435 88706,2021-059Q,48893,6878.312,94.62,506.048,494.306,0,2023/3/5
GENERATED VIA SPACETRACK.ORG API,18 SPCS,48893,SPACEBEE-106,PAYLOAD,U,21059Q,2023/2/2 7:58,451808,15.21911815,0.0008512,97.5783,168.1894,25.948,334.2181,0,999,8881,0.00095227,0.00021681,0,3768366,0 SPACEBEE-106,1 48893U 21059Q   23033.33199597  .00021681  00000-0  95227-3 0  9992,2 48893  97.5783 168.1894 0008512  25.9480 334.2181 15.21911815 88815,2021-059Q,48893,6878.211,94.618,505.931,494.222,0,2023/3/6
GENERATED VIA SPACETRACK.ORG API,18 SPCS,48893,SPACEBEE-106,PAYLOAD,U,21059Q,2023/2/2 7:58,451808,15.21911815,0.0008512,97.5783,168.1894,25.948,334.2181,0,999,8881,0.00095227,0.00021681,0,3768670,0 SPACEBEE-106,1 48893U 21059Q   23033.33199597  .00021681  00000-0  95227-3 0  9992,2 48893  97.5783 168.1894 0008512  25.9480 334.2181 15.21911815 88815,2021-059Q,48893,6878.211,94.618,505.931,494.222,0,2023/3/7
GENERATED VIA SPACETRACK.ORG API,18 SPCS,48893,SPACEBEE-106,PAYLOAD,U,21059Q,2023/2/3 7:38,803648,15.2194789,0.0008496,97.5787,169.1832,22.3308,337.8296,0,999,8896,0.00085212,0.00019408,0,3770323,0 SPACEBEE-106,1 48893U 21059Q   23034.31821532  .00019408  00000-0  85212-3 0  9999,2 48893  97.5787 169.1832 0008496  22.3308 337.8296 15.21947890 88967,2021-059Q,48893,6878.103,94.616,505.811,494.124,0,2023/3/8
GENERATED VIA SPACETRACK.ORG API,18 SPCS,48893,SPACEBEE-106,PAYLOAD,U,21059Q,2023/2/3 7:38,803648,15.2194789,0.0008496,97.5787,169.1832,22.3308,337.8296,0,999,8896,0.00085212,0.00019408,0,3770468,0 SPACEBEE-106,1 48893U 21059Q   23034.31821532  .00019408  00000-0  85212-3 0  9999,2 48893  97.5787 169.1832 0008496  22.3308 337.8296 15.21947890 88967,2021-059Q,48893,6878.103,94.616,505.811,494.124,0,2023/3/9
GENERATED VIA SPACETRACK.ORG API,18 SPCS,48893,SPACEBEE-106,PAYLOAD,U,21059Q,2023/2/4 8:53,167360,15.21995628,0.0008451,97.5791,170.2432,19.1412,341.014,0,999,8912,0.00097054,0.00022154,0,3771679,0 SPACEBEE-106,1 48893U 21059Q   23035.37015240  .00022154  00000-0  97054-3 0  9996,2 48893  97.5791 170.2432 0008451  19.1412 341.0140 15.21995628 89128,2021-059Q,48893,6877.959,94.613,505.636,494.011,0,2023/3/10
